#aV2016  4 29  0  0  0.00000000     288 DD+AD WGS84 FIT  NGA
## 1894 432000.00000000   300.00000000 57507 0.0000000000000
+   31     1  2  3  5  6  7  8  9 10 11 12 13 14 15 16 17 18
+         19 20 21 22 23 24 25 26 27 28 29 30 31 32  0  0  0
+          0  0  0  0  0  0  0  0  0  0  0  0  0  0  0  0  0
+          0  0  0  0  0  0  0  0  0  0  0  0  0  0  0  0  0
+          0  0  0  0  0  0  0  0  0  0  0  0  0  0  0  0  0
++         2  2  2  2  2  2  2  2  2  2  2  2  2  2  2  2  2
++         2  2  2  2  2  2  2  2  2  2  2  2  2  2  0  0  0
++         0  0  0  0  0  0  0  0  0  0  0  0  0  0  0  0  0
++         0  0  0  0  0  0  0  0  0  0  0  0  0  0  0  0  0
++         0  0  0  0  0  0  0  0  0  0  0  0  0  0  0  0  0
%c cc cc ccc ccc cccc cccc cccc cccc ccccc ccccc ccccc ccccc
%c cc cc ccc ccc cccc cccc cccc cccc ccccc ccccc ccccc ccccc
%f  0.0000000  0.000000000  0.00000000000  0.000000000000000
%f  0.0000000  0.000000000  0.00000000000  0.000000000000000
%i    0    0    0    0      0      0      0      0         0
%i    0    0    0    0      0      0      0      0         0
/*      NGA, ST. LOUIS,MO.                                  
/*   EPHEMERIS COMPUTED FROM 2 DAYS OF DATA                 
/*   EPOCHA v2.4 SMOOTHER                                   
/*   G1762 IERS2010 SATAF SATAPC                            
*  2016  4 29 14 15  0.00000000
P  1 -21529.680076 -12225.825634   9849.238285     18.816370                    
V  1  -7144.087264 -10549.704509 -28265.988657      0.011773                    
P  2  12476.293933  21634.361733  10041.526817    594.592136                    
V  2 -10563.264419  -6315.174438  27560.003090     -0.020085                    
P  3 -14875.468532  -3403.763223  21745.461093    -52.596544                    
V  3   7221.964306 -26640.228593    763.169055     -0.039319                    
P  5   5075.410066  21667.864748 -14416.816389   -124.935172                    
V  5  -7095.486135  17068.458151  23456.972676      0.031174                    
P  6  -1351.265585  17916.751742  19574.592937    182.899820                    
V  6 -18357.458054 -16741.499057  14067.449593      0.055881                    
P  7 -17092.692960   2200.382890 -20184.193642    457.442572                    
V  7 -17113.491404 -19326.381757  11911.510159     -0.021168                    
P  8 -17933.560684  -8008.330092 -17843.210003    -33.236281                    
V  8  21547.694271  -7448.851910 -18224.563542     -0.014452                    
P  9 -25417.707289   7662.742078  -1071.098784    119.375069                    
V  9  -2070.420943  -2518.670687  31589.304465      0.073923                    
P 10  10768.996592 -23448.031713  -6137.063325    -10.180872                    
V 10    668.824589   8291.178046 -30476.080991     -0.093752                    
P 11 -24177.768304 -11041.911792   -240.354016   -644.379731                    
V 11   1666.375276  -4506.854324 -30232.225596     -0.026523                    
P 12  12575.857215   7806.747418  21943.213703    378.008515                    
V 12  -8948.984344  26604.647756  -4099.330202      0.013076                    
P 13   9673.743759  13130.839274 -21076.045491    -14.339581                    
V 13 -26066.013824   4521.345658  -9290.843137     -0.026535                    
P 14  13316.618384 -14898.202465  17677.744113    -11.062152                    
V 14  21924.522811  -2361.561142 -18931.816956     -0.021117                    
P 15  21095.929242   5300.501954 -15592.206430   -308.655840                    
V 15 -17841.371537   8267.798153 -21152.273785     -0.017071                    
P 16  -2399.936365 -21952.898524 -14559.960594    -21.098580                    
V 16   7639.778320 -16834.433944  24668.217468      0.026884                    
P 17 -16326.444184  14260.666197  15547.828643   -203.462097                    
V 17 -19117.465252   2391.158129 -22931.961298     -0.002857                    
P 18  15350.691569 -14641.852637 -15283.929752    510.029286                    
V 18  -1858.254626  20726.351086 -21250.936136      0.042015                    
P 19  -6978.458533  15248.502156  20452.001826   -525.699436                    
V 19 -26139.935756   3570.505367 -11081.405291     -0.000585                    
P 20  14678.231742   7420.753994 -21000.438532    409.066548                    
V 20  -5496.173823  25899.061270   5394.751876      0.024095                    
P 21  15055.661700  -6252.541070 -20262.638586   -520.886432                    
V 21  19247.089655  19656.944271   7696.336471     -0.013782                    
P 22 -11895.376643 -13785.631795  19536.882607    352.891832                    
V 22   7291.525639 -23426.346107 -12372.926758     -0.077994                    
P 23 -25292.230971     -9.959533   8997.901748   -171.562859                    
V 23  10027.705536  -5329.926988  28339.047376     -0.016994                    
P 24  21557.161805  14191.804759   6631.018629    -16.276479                    
V 24   4098.192841   7942.994560 -29866.018135     -0.006016                    
P 25  15812.176366  -5931.884254  20325.972836   -162.090531                    
V 25  -5981.224475  25411.285666  12185.478686     -0.070617                    
P 26   3538.288683 -25889.570517  -4621.777519   -347.317488                    
V 26   4219.297304  -4953.599822  31055.956500     -0.130054                    
P 27  -7164.471017 -13487.807555 -21772.374414     87.219497                    
V 27  26530.471120  -7348.399757  -4020.538006      0.039645                    
P 28 -12431.859091  22369.224352  -6384.525417    519.521154                    
V 28   1144.075313  -9070.860226 -31028.484538      0.026156                    
P 29  26156.938635  -4018.841507   1942.015885    657.117447                    
V 29  -1934.821813   2773.609977  32020.734676      0.000471                    
P 30  -9976.126552  11908.601068 -21546.337887    120.980097                    
V 30 -18145.340202 -20499.118473  -3022.157429      0.033239                    
P 31   -636.493381 -19132.955108  18354.596275    271.427849                    
V 31  16904.074782  15968.463756  17683.084792     -0.018081                    
P 32  13927.995312 -15610.159015  16363.194838      0.642941                    
V 32  20548.388987  -3587.967362 -20927.981568     -0.044660                    
EOF
